[{"OBJECT_NAME":"STARLINK-31114","OBJECT_ID":"2024-011B","EPOCH":"2026-03-09T06:23:51.437184","MEAN_MOTION":15.30192842,"ECCENTRICITY":0.0001084,"INCLINATION":53.1615,"RA_OF_ASC_NODE":13.6666,"ARG_OF_PERICENTER":87.3657,"MEAN_ANOMALY":272.7468,"EPHEMERIS_TYPE":0,"CLASSIFICATION_TYPE":"U","NORAD_CAT_ID":58766,"ELEMENT_SET_NO":999,"REV_AT_EPOCH":12023,"BSTAR":-9.084718e-6,"MEAN_MOTION_DOT":-6.28e-6,"MEAN_MOTION_DDOT":0},{"OBJECT_NAME":"GEOSCAN 5 (RS92S5)","OBJECT_ID":"2025-155R","EPOCH":"2026-03-09T22:01:07.273920","MEAN_MOTION":15.30265233,"ECCENTRICITY":0.00070849,"INCLINATION":97.4462,"RA_OF_ASC_NODE":37.7456,"ARG_OF_PERICENTER":154.5846,"MEAN_ANOMALY":205.5745,"EPHEMERIS_TYPE":0,"CLASSIFICATION_TYPE":"U","NORAD_CAT_ID":64891,"ELEMENT_SET_NO":999,"REV_AT_EPOCH":6562,"BSTAR":0.00068639307,"MEAN_MOTION_DOT":0.00020065,"MEAN_MOTION_DDOT":0}]
